CCSDS_OMM_VERS = 2.0
CREATION_DATE  = 
ORIGINATOR     = 

OBJECT_NAME    = STARLINK-35511
OBJECT_ID      = 2025-253AB
CENTER_NAME    = EARTH
REF_FRAME      = TEME
TIME_SYSTEM    = UTC
MEAN_ELEMENT_THEORY = SGP/SGP4

EPOCH          = 2025-11-30T15:01:14.454336
MEAN_MOTION    = 15.50620358
ECCENTRICITY   = .00016014
INCLINATION    = 42.9996
RA_OF_ASC_NODE = 55.4570
ARG_OF_PERICENTER = 280.7989
MEAN_ANOMALY   = 79.2690

EPHEMERIS_TYPE = 0
CLASSIFICATION_TYPE = U
NORAD_CAT_ID   = 66344
ELEMENT_SET_NO = 999
REV_AT_EPOCH   = 505
BSTAR          = .21476122E-2
MEAN_MOTION_DOT = .127916E-2
MEAN_MOTION_DDOT = 0

CCSDS_OMM_VERS = 2.0
CREATION_DATE  = 
ORIGINATOR     = 

OBJECT_NAME    = STARLINK-35440
OBJECT_ID      = 2025-253AC
CENTER_NAME    = EARTH
REF_FRAME      = TEME
TIME_SYSTEM    = UTC
MEAN_ELEMENT_THEORY = SGP/SGP4

EPOCH          = 2025-11-30T15:02:14.017632
MEAN_MOTION    = 15.50590292
ECCENTRICITY   = .00014853
INCLINATION    = 43.0002
RA_OF_ASC_NODE = 55.4612
ARG_OF_PERICENTER = 272.1162
MEAN_ANOMALY   = 87.9528

EPHEMERIS_TYPE = 0
CLASSIFICATION_TYPE = U
NORAD_CAT_ID   = 66345
ELEMENT_SET_NO = 999
REV_AT_EPOCH   = 505
BSTAR          = .15573787E-2
MEAN_MOTION_DOT = .92142E-3
MEAN_MOTION_DDOT = 0

CCSDS_OMM_VERS = 2.0
CREATION_DATE  = 
ORIGINATOR     = 

OBJECT_NAME    = STARLINK-35482
OBJECT_ID      = 2025-253AD
CENTER_NAME    = EARTH
REF_FRAME      = TEME
TIME_SYSTEM    = UTC
MEAN_ELEMENT_THEORY = SGP/SGP4

EPOCH          = 2025-11-30T15:01:44.285664
MEAN_MOTION    = 15.50602111
ECCENTRICITY   = .00016016
INCLINATION    = 43.0003
RA_OF_ASC_NODE = 55.4595
ARG_OF_PERICENTER = 280.6089
MEAN_ANOMALY   = 79.4591

EPHEMERIS_TYPE = 0
CLASSIFICATION_TYPE = U
NORAD_CAT_ID   = 66346
ELEMENT_SET_NO = 999
REV_AT_EPOCH   = 505
BSTAR          = .18635989E-2
MEAN_MOTION_DOT = .110636E-2
MEAN_MOTION_DDOT = 0

CCSDS_OMM_VERS = 2.0
CREATION_DATE  = 
ORIGINATOR     = 

OBJECT_NAME    = STARLINK-35438
OBJECT_ID      = 2025-253AE
CENTER_NAME    = EARTH
REF_FRAME      = TEME
TIME_SYSTEM    = UTC
MEAN_ELEMENT_THEORY = SGP/SGP4

EPOCH          = 2025-11-30T13:27:59.366592
MEAN_MOTION    = 15.50606287
ECCENTRICITY   = .0001682
INCLINATION    = 43.0001
RA_OF_ASC_NODE = 55.8301
ARG_OF_PERICENTER = 275.9630
MEAN_ANOMALY   = 84.1039

EPHEMERIS_TYPE = 0
CLASSIFICATION_TYPE = U
NORAD_CAT_ID   = 66347
ELEMENT_SET_NO = 999
REV_AT_EPOCH   = 504
BSTAR          = .13863757E-2
MEAN_MOTION_DOT = .81926E-3
MEAN_MOTION_DDOT = 0

CCSDS_OMM_VERS = 2.0
CREATION_DATE  = 
ORIGINATOR     = 

OBJECT_NAME    = STARLINK-35849
OBJECT_ID      = 2025-254A
CENTER_NAME    = EARTH
REF_FRAME      = TEME
TIME_SYSTEM    = UTC
MEAN_ELEMENT_THEORY = SGP/SGP4

EPOCH          = 2025-11-30T11:58:13.796256
MEAN_MOTION    = 15.74233436
ECCENTRICITY   = .00014876
INCLINATION    = 53.1587
RA_OF_ASC_NODE = 335.7257
ARG_OF_PERICENTER = 85.1822
MEAN_ANOMALY   = 274.9368

EPHEMERIS_TYPE = 0
CLASSIFICATION_TYPE = U
NORAD_CAT_ID   = 66348
ELEMENT_SET_NO = 999
REV_AT_EPOCH   = 491
BSTAR          = .9599546E-3
MEAN_MOTION_DOT = .142637E-2
MEAN_MOTION_DDOT = 0

CCSDS_OMM_VERS = 2.0
CREATION_DATE  = 
ORIGINATOR     = 

OBJECT_NAME    = STARLINK-35848
OBJECT_ID      = 2025-254B
CENTER_NAME    = EARTH
REF_FRAME      = TEME
TIME_SYSTEM    = UTC
MEAN_ELEMENT_THEORY = SGP/SGP4

EPOCH          = 2025-11-30T11:57:44.484192
MEAN_MOTION    = 15.74248133
ECCENTRICITY   = .00013843
INCLINATION    = 53.1587
RA_OF_ASC_NODE = 335.7231
ARG_OF_PERICENTER = 92.3352
MEAN_ANOMALY   = 267.7827

EPHEMERIS_TYPE = 0
CLASSIFICATION_TYPE = U
NORAD_CAT_ID   = 66349
ELEMENT_SET_NO = 999
REV_AT_EPOCH   = 375
BSTAR          = .11667342E-2
MEAN_MOTION_DOT = .174266E-2
MEAN_MOTION_DDOT = 0

CCSDS_OMM_VERS = 2.0
CREATION_DATE  = 
ORIGINATOR     = 

OBJECT_NAME    = STARLINK-35829
OBJECT_ID      = 2025-254C
CENTER_NAME    = EARTH
REF_FRAME      = TEME
TIME_SYSTEM    = UTC
MEAN_ELEMENT_THEORY = SGP/SGP4

EPOCH          = 2025-11-30T11:57:15.261120
MEAN_MOTION    = 15.74241145
ECCENTRICITY   = .00014381
INCLINATION    = 53.1586
RA_OF_ASC_NODE = 335.7206
ARG_OF_PERICENTER = 94.0291
MEAN_ANOMALY   = 266.0893

EPHEMERIS_TYPE = 0
CLASSIFICATION_TYPE = U
NORAD_CAT_ID   = 66350
ELEMENT_SET_NO = 999
REV_AT_EPOCH   = 375
BSTAR          = .10935328E-2
MEAN_MOTION_DOT = .163024E-2
MEAN_MOTION_DDOT = 0

CCSDS_OMM_VERS = 2.0
CREATION_DATE  = 
ORIGINATOR     = 

OBJECT_NAME    = STARLINK-35828
OBJECT_ID      = 2025-254D
CENTER_NAME    = EARTH
REF_FRAME      = TEME
TIME_SYSTEM    = UTC
MEAN_ELEMENT_THEORY = SGP/SGP4

EPOCH          = 2025-11-30T11:56:46.198752
MEAN_MOTION    = 15.74243726
ECCENTRICITY   = .00018127
INCLINATION    = 53.1587
RA_OF_ASC_NODE = 335.7180
ARG_OF_PERICENTER = 84.2116
MEAN_ANOMALY   = 275.9110

EPHEMERIS_TYPE = 0
CLASSIFICATION_TYPE = U
NORAD_CAT_ID   = 66351
ELEMENT_SET_NO = 999
REV_AT_EPOCH   = 375
BSTAR          = .1150682E-2
MEAN_MOTION_DOT = .171778E-2
MEAN_MOTION_DDOT = 0

CCSDS_OMM_VERS = 2.0
CREATION_DATE  = 
ORIGINATOR     = 

OBJECT_NAME    = STARLINK-35850
OBJECT_ID      = 2025-254E
CENTER_NAME    = EARTH
REF_FRAME      = TEME
TIME_SYSTEM    = UTC
MEAN_ELEMENT_THEORY = SGP/SGP4

EPOCH          = 2025-11-30T11:56:17.034432
MEAN_MOTION    = 15.74240001
ECCENTRICITY   = .00016491
INCLINATION    = 53.1588
RA_OF_ASC_NODE = 335.7155
ARG_OF_PERICENTER = 87.7221
MEAN_ANOMALY   = 272.3987

EPHEMERIS_TYPE = 0
CLASSIFICATION_TYPE = U
NORAD_CAT_ID   = 66352
ELEMENT_SET_NO = 999
REV_AT_EPOCH   = 375
BSTAR          = .11392628E-2
MEAN_MOTION_DOT = .170002E-2
MEAN_MOTION_DDOT = 0

CCSDS_OMM_VERS = 2.0
CREATION_DATE  = 
ORIGINATOR     = 

OBJECT_NAME    = STARLINK-35869
OBJECT_ID      = 2025-254F
CENTER_NAME    = EARTH
REF_FRAME      = TEME
TIME_SYSTEM    = UTC
MEAN_ELEMENT_THEORY = SGP/SGP4

EPOCH          = 2025-11-30T11:55:47.709408
MEAN_MOTION    = 15.74251341
ECCENTRICITY   = .00012605
INCLINATION    = 53.1582
RA_OF_ASC_NODE = 335.7129
ARG_OF_PERICENTER = 97.3030
MEAN_ANOMALY   = 262.8133

EPHEMERIS_TYPE = 0
CLASSIFICATION_TYPE = U
NORAD_CAT_ID   = 66353
ELEMENT_SET_NO = 999
REV_AT_EPOCH   = 375
BSTAR          = .1305697E-2
MEAN_MOTION_DOT = .195624E-2
MEAN_MOTION_DDOT = 0

CCSDS_OMM_VERS = 2.0
CREATION_DATE  = 
ORIGINATOR     = 

OBJECT_NAME    = STARLINK-35895
OBJECT_ID      = 2025-254G
CENTER_NAME    = EARTH
REF_FRAME      = TEME
TIME_SYSTEM    = UTC
MEAN_ELEMENT_THEORY = SGP/SGP4

EPOCH          = 2025-11-30T14:00:01.999872
MEAN_MOTION    = 15.64202418
ECCENTRICITY   = .00013539
INCLINATION    = 53.1589
RA_OF_ASC_NODE = 335.3499
ARG_OF_PERICENTER = 68.4818
MEAN_ANOMALY   = 29.0169

EPHEMERIS_TYPE = 0
CLASSIFICATION_TYPE = U
NORAD_CAT_ID   = 66354
ELEMENT_SET_NO = 999
REV_AT_EPOCH   = 496
BSTAR          = -.29642186E-1
MEAN_MOTION_DOT = -.2504683E-1
MEAN_MOTION_DDOT = 0

CCSDS_OMM_VERS = 2.0
CREATION_DATE  = 
ORIGINATOR     = 

OBJECT_NAME    = STARLINK-35861
OBJECT_ID      = 2025-254H
CENTER_NAME    = EARTH
REF_FRAME      = TEME
TIME_SYSTEM    = UTC
MEAN_ELEMENT_THEORY = SGP/SGP4

EPOCH          = 2025-11-30T11:54:49.161312
MEAN_MOTION    = 15.74250458
ECCENTRICITY   = .00015005
INCLINATION    = 53.1585
RA_OF_ASC_NODE = 335.7081
ARG_OF_PERICENTER = 91.8377
MEAN_ANOMALY   = 268.2815

EPHEMERIS_TYPE = 0
CLASSIFICATION_TYPE = U
NORAD_CAT_ID   = 66355
ELEMENT_SET_NO = 999
REV_AT_EPOCH   = 375
BSTAR          = .11301554E-2
MEAN_MOTION_DOT = .168687E-2
MEAN_MOTION_DDOT = 0

