STARLINK-35511          
1 66344U 25253AB  25334.62586174  .00127916  00000+0  21476-2 0  9993
2 66344  42.9996  55.4570 0001601 280.7989  79.2690 15.50620358  5059
STARLINK-35440          
1 66345U 25253AC  25334.62655113  .00092142  00000+0  15574-2 0  9998
2 66345  43.0002  55.4612 0001485 272.1162  87.9528 15.50590292  5054
STARLINK-35482          
1 66346U 25253AD  25334.62620701  .00110636  00000+0  18636-2 0  9995
2 66346  43.0003  55.4595 0001601 280.6089  79.4591 15.50602111  5058
STARLINK-35438          
1 66347U 25253AE  25334.56110378  .00081926  00000+0  13864-2 0  9990
2 66347  43.0001  55.8301 0001682 275.9630  84.1039 15.50606287  5041
STARLINK-35849          
1 66348U 25254A   25334.49877079  .00142637  00000+0  95995-3 0  9995
2 66348  53.1587 335.7257 0001487  85.1822 274.9368 15.74233436  4917
STARLINK-35848          
1 66349U 25254B   25334.49843153  .00174266  00000+0  11667-2 0  9998
2 66349  53.1587 335.7231 0001384  92.3352 267.7827 15.74248133  3755
STARLINK-35829          
1 66350U 25254C   25334.49809330  .00163024  00000+0  10935-2 0  9996
2 66350  53.1586 335.7206 0001438  94.0291 266.0893 15.74241145  3750
STARLINK-35828          
1 66351U 25254D   25334.49775693  .00171778  00000+0  11507-2 0  9992
2 66351  53.1587 335.7180 0001812  84.2116 275.9110 15.74243726  3754
STARLINK-35850          
1 66352U 25254E   25334.49741938  .00170002  00000+0  11393-2 0  9990
2 66352  53.1588 335.7155 0001649  87.7221 272.3987 15.74240001  3757
STARLINK-35869          
1 66353U 25254F   25334.49707997  .00195624  00000+0  13057-2 0  9994
2 66353  53.1582 335.7129 0001260  97.3030 262.8133 15.74251341  3753
STARLINK-35895          
1 66354U 25254G   25334.58335648 -.02504683  00000+0 -29642-1 0  9994
2 66354  53.1589 335.3499 0001353  68.4818  29.0169 15.64202418  4969
STARLINK-35861          
1 66355U 25254H   25334.49640233  .00168687  00000+0  11302-2 0  9995
2 66355  53.1585 335.7081 0001500  91.8377 268.2815 15.74250458  3750
